0 THORAD AGENA D DEB
1 26821U 70025QQ  13282.31016197  .00003420  00000-0  16198-2 0  2761
2 26821 099.9944 224.7292 0080727 128.5750 025.1567 14.18698700 43349
0 THORAD AGENA D DEB
1 26821U 70025QQ  13287.10084418  .00003623  00000-0  17131-2 0  2789
2 26821 099.9953 230.1239 0081111 115.3665 012.8800 14.18723155 44020
0 THORAD AGENA D DEB
1 26821U 70025QQ  13289.29384396  .00004215  00000-0  19878-2 0  2798
2 26821 099.9955 232.5931 0081237 109.3211 053.4934 14.18743599 44333
0 THORAD AGENA D DEB
1 26821U 70025QQ  13291.52935521  .00004597  00000-0  21649-2 0  2803
2 26821 099.9964 235.1105 0081355 103.2184 311.3194 14.18758361 44650
0 THORAD AGENA D DEB
1 26821U 70025QQ  13293.78145987  .00004686  00000-0  22054-2 0  2813
2 26821 099.9969 237.6464 0081517 097.0341 294.0674 14.18776998 44976
0 THORAD AGENA D DEB
1 26821U 70025QQ  13295.83134110  .00005190  00000-0  24386-2 0  2829
2 26821 099.9968 239.9551 0081665 091.4470 324.0388 14.18793338 45268
